STARLINK-1035
1 44740U 19074AD  24100.73844136  .00001157  00000+0  96576-4 0  9993
2 44740  53.0544 104.3389 0001446  87.9465 272.1690 15.06399181243126
STARLINK-30543
1 57996U 23153F   24100.91667824 -.00935513  00000+0 -18373-1 0  9990
2 57996  42.9805 155.9858 0001124 263.0127 290.8223 15.48995352  6009
STARLINK-5408
1 54810U 22175BE  24101.52545229 -.00000248  00000+0  25710-5 0  9991
2 54810  53.2156 278.0757 0002519  87.3214 272.8067 15.08846340 72640
STARLINK-3831
1 52332U 22045B   24101.22420630  .00000669  00000+0  60117-4 0  9994
2 52332  53.2174 104.6630 0001555  96.1435 263.9734 15.08841762110191
STARLINK-3668
1 52002U 22025AY  24100.86170065  .00001516  00000+0  11333-3 0  9996
2 52002  53.2208 276.3226 0001396  91.1336 268.9816 15.08839159115423
STARLINK-2756
1 48683U 21044AX  24101.04391526  .00005637  00000+0  39692-3 0  9990
2 48683  53.0577 327.9687 0001680  94.2818 265.8363 15.06411804159948
STARLINK-30486
1 58009U 23153U   24101.50949185  .00001978  00000+0  16150-3 0  9995
2 58009  43.0037 262.3056 0001988 263.3466  96.7150 15.02531485 29532
STARLINK-5669
1 55459U 23015L   24101.54722480  .00000551  00000+0  55841-4 0  9996
2 55459  43.0019 159.6401 0001405 267.5196  92.5485 15.02534362 65734
STARLINK-3688
1 52310U 22041BB  24101.39622222  .00001499  00000+0  11223-3 0  9990
2 52310  53.2172 343.9524 0001322  86.8976 273.2167 15.08842203110446
STARLINK-4141
1 53138U 22083G   24100.63814735  .00001446  00000+0  10889-3 0  9992
2 53138  53.2186  67.4654 0001497  91.6732 268.4432 15.08846268 96527
STARLINK-31346
1 58943U 24027N   24100.98383391  .00020391  00000+0  74655-3 0  9999
2 58943  53.1584 313.6095 0001049  57.7231 302.3870 15.28031096 10169
STARLINK-5468
1 54777U 22175V   24101.53097002  .00002095  00000+0  14969-3 0  9998
2 54777  53.2194 298.0764 0001860  86.0679 274.0526 15.08842298 72364
STARLINK-4786
1 55393U 23014C   24101.20814365  .00000173  00000+0  22320-4 0  9995
2 55393  70.0009  25.4321 0002913 267.5123  92.5703 14.98329490 66491
STARLINK-5025
1 53920U 22119AL  24100.59079823 -.00000898  00000+0 -38318-4 0  9997
2 53920  53.2150 212.5634 0001668  90.9159 269.2024 15.08843187 85861
STARLINK-6355
1 57356U 23099AE  24101.27550726  .00000365  00000+0  42093-4 0  9996
2 57356  43.0040  71.2157 0001209 270.3067  89.7637 15.02536231 41844
STARLINK-3616
1 51782U 22017Q   24100.78350275  .00000047  00000+0  21043-4 0  9993
2 51782  53.2133 246.7843 0001161  91.3257 268.7868 15.08849754116679
STARLINK-5100
1 55495U 23015AY  24101.44005576  .00000743  00000+0  70041-4 0  9997
2 55495  43.0017 147.5431 0001119 269.8319  90.2395 15.02532966 65682
STARLINK-3921
1 52613U 22052R   24100.45965763  .00002825  00000+0  19556-3 0  9995
2 52613  53.2179 168.0848 0001586  93.4627 266.6546 15.08836991105430
STARLINK-3595
1 51894U 22022AU  24100.70897116  .00002144  00000+0  15272-3 0  9991
2 51894  53.2174 256.9654 0001151  83.7688 276.3435 15.08840859117788
STARLINK-31593
1 59350U 24060C   24101.58335648 -.00964276  00000+0 -59285-2 0  9990
2 59350  43.0011 283.6088 0001742 263.1732 358.3331 15.78836493  2817
STARLINK-31156
1 58743U 24005R   24101.35299781  .00012984  00000+0  97589-3 0  9994
2 58743  43.0018  56.1992 0000438 250.5066 109.5729 15.02480872 15428
STARLINK-5402
1 54869U 22177BB  24100.97768312  .00001307  00000+0  11182-3 0  9997
2 54869  43.0040 316.6889 0001321 271.4574  88.6117 15.02534132 70906
STARLINK-6283
1 56406U 23061AJ  24100.80014320  .00000199  00000+0  29790-4 0  9997
2 56406  43.0030  22.0264 0000814 277.8250  82.2500 15.02537245 51774
STARLINK-1536
1 46070U 20055AV  24101.38256336  .00000630  00000+0  61183-4 0  9994
2 46070  53.0552 351.4407 0001358  82.5884 277.5259 15.06400854203527
STARLINK-5876
1 56321U 23058E   24101.41573725  .00129670  00000+0  98976-2 0  9992
2 56321  97.6566 103.1789 0001428  72.5092 287.6288 15.01330393 52856
STARLINK-1936
1 46772U 20074AK  24101.37791659 -.00003291  00000+0 -20200-3 0  9997
2 46772  53.0526 231.4458 0002056  92.2631 267.8594 15.06420161191235
STARLINK-30194
1 57308U 23096U   24101.15827152  .00000426  00000+0  46632-4 0  9998
2 57308  43.0046  58.4832 0001190 265.5088  94.5618 15.02533787 41444
STARLINK-2192
1 47769U 21017AZ  24101.18028748  .00000837  00000+0  75048-4 0  9995
2 47769  53.0542  87.3450 0001406  89.2887 270.8263 15.06409180172095
STARLINK-4480
1 53416U 22097AE  24101.17494610  .00000706  00000+0  62430-4 0  9990
2 53416  53.2184   9.8276 0001290  90.9275 269.1865 15.08840329 92716
STARLINK-1986
1 47582U 21009AL  24101.52032162  .00000828  00000+0  74483-4 0  9994
2 47582  53.0532 275.8191 0001186  92.2804 267.8321 15.06397829176160
STARLINK-3260
1 50205U 21125BB  24101.23524449  .00000451  00000+0  46448-4 0  9993
2 50205  53.2159 104.6018 0001408  88.5147 271.6007 15.08843415131248
STARLINK-1735
1 46565U 20070AK  24101.13743760  .00005683  00000+0  39994-3 0  9992
2 46565  53.0550  52.5350 0001560  97.8251 262.2915 15.06415188194190
STARLINK-31035
1 58532U 23192B   24101.19859440  .00003752  00000+0  14801-3 0  9991
2 58532  53.1618  64.9883 0001538  98.0837 262.0337 15.28034464 20269
STARLINK-2185
1 47767U 21017AX  24101.19688184 -.00000458  00000+0 -11831-4 0  9991
2 47767  53.0532 107.2683 0001260  79.3646 280.7485 15.06393454171825
STARLINK-1739
1 46363U 20062AQ  24100.34079205  .00002270  00000+0  17128-3 0  9991
2 46363  53.0523 231.1021 0001334  87.4148 272.6993 15.06396606199532
STARLINK-5220
1 54760U 22175C   24100.83917465  .00000127  00000+0  26082-4 0  9990
2 54760  53.2178 301.5723 0001311  90.8929 269.2214 15.08839141 74416
STARLINK-1237
1 45192U 20012Q   24101.53461082  .00001102  00000+0  92912-4 0  9993
2 45192  53.0543 300.7568 0001357  89.0473 271.0671 15.06391527228677
STARLINK-30517
1 57995U 23153E   24101.53280432 -.00001509  00000+0 -96609-4 0  9994
2 57995  43.0033 262.4861 0001580 267.9466  92.1195 15.02550858 29864
STARLINK-31275
1 59197U 24045V   24101.15823427  .00003297  00000+0  86108-4 0  9993
2 59197  42.9995 112.6535 0000666 260.8065  99.2716 15.40715686  5922
STARLINK-1865
1 46741U 20074C   24101.30100610  .00002708  00000+0  20062-3 0  9993
2 46741  53.0538 216.8043 0001115  98.2719 261.8396 15.06398921191433
STARLINK-30557
1 58087U 23160N   24100.84414965  .00001268  00000+0  10896-3 0  9991
2 58087  43.0019 277.5606 0002022 276.4870  83.5742 15.02535210 27798
STARLINK-2609
1 48373U 21038W   24101.38670006  .00000895  00000+0  78966-4 0  9998
2 48373  53.0575 246.4208 0001130  91.3733 268.7385 15.06403448162507
STARLINK-4615
1 53620U 22104AJ  24100.50149009  .00000151  00000+0  27549-4 0  9997
2 53620  53.2160 132.7321 0001432  86.8976 273.2180 15.08838397 89516
STARLINK-31036
1 58533U 23192C   24101.17072489  .00009397  00000+0  35130-3 0  9999
2 58533  53.1624  66.2781 0001795 101.1958 258.9244 15.28037945 20251
STARLINK-1894
1 46744U 20074F   24101.33790262  .00012231  00000+0  83798-3 0  9994
2 46744  53.0549 216.9114 0001470  78.6556 281.4598 15.06425769191414
STARLINK-2699
1 48433U 21040F   24101.16558260  .00001335  00000+0  10847-3 0  9994
2 48433  53.0564  47.6903 0001521  97.9658 262.1504 15.06407148162363
STARLINK-3203
1 49761U 21115AP  24101.18921309  .00003691  00000+0  24994-3 0  9997
2 49761  53.2205  34.8131 0001640 106.2660 253.8513 15.08829716131333
STARLINK-5627
1 55364U 23013AK  24100.80759736  .00002563  00000+0  20472-3 0  9997
2 55364  43.0045 137.4959 0001104 263.9880  96.0837 15.02531657 66584
STARLINK-30099
1 56304U 23056U   24101.52749940  .00002113  00000+0  17143-3 0  9997
2 56304  43.0049  43.6844 0001216 263.6490  96.4214 15.02542395 54404
STARLINK-30307
1 57747U 23131R   24101.46299592  .00015779  00000+0  11801-2 0  9995
2 57747  43.0029   5.6781 0001787 285.9021  74.1624 15.02547968 34780
STARLINK-30985
1 58493U 23186W   24100.79674748  .00000867  00000+0  79271-4 0  9998
2 58493  43.0014 264.7028 0002231 268.8234  91.2352 15.02537756 20716
STARLINK-3321
1 50803U 22001A   24101.21957260  .00001871  00000+0  13560-3 0  9995
2 50803  53.2182  64.6753 0001651  92.2491 267.8690 15.08837243126233
STARLINK-2579
1 48459U 21040AH  24101.20106957  .00000251  00000+0  35774-4 0  9992
2 48459  53.0547  82.6107 0001758  85.9820 274.1370 15.06396601161888
STARLINK-1401
1 45684U 20035AD  24100.77981897  .00011981  00000+0  47244-3 0  9993
2 45684  53.0564 286.2043 0006455 193.4739 166.6087 15.25978923213936
STARLINK-1993
1 47588U 21009AS  24101.49452280  .00000945  00000+0  82359-4 0  9994
2 47588  53.0532 275.9324 0002303 100.2546 259.8703 15.06398226176178
STARLINK-5380
1 54829U 22177K   24100.94092173  .00000360  00000+0  41722-4 0  9997
2 54829  43.0059 330.2897 0001213 271.6732  88.3971 15.02533019 71843
STARLINK-3780
1 52278U 22041T   24100.76876973  .00001495  00000+0  11199-3 0  9995
2 52278  53.2188   6.7021 0001416 101.8175 258.2976 15.08841749108852
STARLINK-30111
1 56302U 23056S   24100.93253951 -.00000037  00000+0  12304-4 0  9990
2 56302  43.0036  46.9709 0001328 261.9645  98.1047 15.02530735 54971
STARLINK-3796
1 52372U 22045AT  24100.66204980  .00001311  00000+0  10046-3 0  9993
2 52372  53.2182  87.1789 0001441  97.6789 262.4367 15.08840525110389
STARLINK-1444
1 45661U 20035E   24101.32066392  .00031398  00000+0  16721-2 0  9993
2 45661  53.0532 318.0300 0001144 124.1527 235.9575 15.14971465213105
STARLINK-3953
1 52559U 22051AC  24100.49923316  .00000021  00000+0  19443-4 0  9997
2 52559  53.2219  18.0889 0001650  82.3477 277.7703 15.08840523106092
STARLINK-30055
1 55699U 23026E   24101.11968074 -.00007536  00000+0 -54116-4 0  9994
2 55699  43.0023 348.8933 0002713 257.4520 102.6044 15.71328702 65064
STARLINK-3296
1 50168U 21125N   24101.41558935 -.00000196  00000+0  57989-5 0  9998
2 50168  53.2186 143.8862 0001663 106.7244 253.3931 15.08831655128097
STARLINK-2323
1 47868U 21021J   24101.33694821  .00002252  00000+0  17003-3 0  9997
2 47868  53.0533 106.6449 0001508  92.4838 267.6323 15.06402770171305
